LUR-1                   
1 60506U 24149AQ  26068.79566301  .00009121  00000+0  32985-3 0  9998
2 60506  97.3790 148.4255 0002777 309.1571  50.9421 15.28658648 86785
STARLINK-35964          
1 66796U 25278F   26068.46888161  .00029421  00000+0  10740-2 0  9993
2 66796  43.0059 100.7099 0002315 252.2237 107.8362 15.27590262 15346
