[{"OBJECT_NAME":"LUR-1","OBJECT_ID":"2024-149AQ","EPOCH":"2026-03-09T19:05:45.284064","MEAN_MOTION":15.28658648,"ECCENTRICITY":0.00027765,"INCLINATION":97.379,"RA_OF_ASC_NODE":148.4255,"ARG_OF_PERICENTER":309.1571,"MEAN_ANOMALY":50.9421,"EPHEMERIS_TYPE":0,"CLASSIFICATION_TYPE":"U","NORAD_CAT_ID":60506,"ELEMENT_SET_NO":999,"REV_AT_EPOCH":8678,"BSTAR":0.0003298462,"MEAN_MOTION_DOT":9.121e-5,"MEAN_MOTION_DDOT":0},{"OBJECT_NAME":"STARLINK-35964","OBJECT_ID":"2025-278F","EPOCH":"2026-03-09T11:15:11.371104","MEAN_MOTION":15.27590262,"ECCENTRICITY":0.00023157,"INCLINATION":43.0059,"RA_OF_ASC_NODE":100.7099,"ARG_OF_PERICENTER":252.2237,"MEAN_ANOMALY":107.8362,"EPHEMERIS_TYPE":0,"CLASSIFICATION_TYPE":"U","NORAD_CAT_ID":66796,"ELEMENT_SET_NO":999,"REV_AT_EPOCH":1534,"BSTAR":0.0010740251,"MEAN_MOTION_DOT":0.00029421,"MEAN_MOTION_DDOT":0}]
